STARLINK-2549
1 28314C 21036AQ  21325.11909551  .00000077  00000-0  51601-5 0  3251
2 28314  53.0534 297.7074 0001831  56.5046 353.4675 15.06393609    13
